{
  "type": "FeatureCollection",
  "features": [
    {
      "type": "Feature",
      "properties": {
        "norad_id": 30571,
        "name": "FENGYUN 1C DEB",
        "group": "fengyun-1c-debris",
        "lat": -65.61404796551666,
        "lon": 175.12617183562892,
        "alt_km": 849.9276872565879,
        "timestamp": "2025-12-14T18:52:55.780760+00:00",
        "meta_object_name": "FENGYUN 1C DEB",
        "meta_object_id": "1999-025ALM",
        "meta_epoch": "2025-12-13T21:51:37.255104",
        "meta_mean_motion": 14.10696699,
        "meta_eccentricity": 0.00208357,
        "meta_inclination": 98.7313,
        "meta_ra_of_asc_node": 14.0913,
        "meta_arg_of_pericenter": 230.5198,
        "meta_mean_anomaly": 250.6667,
        "meta_ephemeris_type": 0,
        "meta_classification_type": "U",
        "meta_norad_cat_id": 30571,
        "meta_element_set_no": 999,
        "meta_rev_at_epoch": 96903,
        "meta_bstar": 0.00032990861,
        "meta_mean_motion_dot": 5.48e-06,
        "meta_mean_motion_ddot": 0,
        "tle_line1": "1 30571U 99025ALM 25347.91084786  .00000548  00000+0  32991-3 0  9998",
        "tle_line2": "2 30571  98.7313  14.0913 0020835 230.5198 250.6667 14.10696699969033"
      },
      "geometry": {
        "type": "Point",
        "coordinates": [
          175.12617183562892,
          -65.61404796551666
        ]
      }
    },
    {
      "type": "Feature",
      "properties": {
        "norad_id": 30572,
        "name": "FENGYUN 1C DEB",
        "group": "fengyun-1c-debris",
        "lat": 39.187389300315296,
        "lon": -154.41378290423177,
        "alt_km": 872.9207184552652,
        "timestamp": "2025-12-14T18:52:55.780770+00:00",
        "meta_object_name": "FENGYUN 1C DEB",
        "meta_object_id": "1999-025ALN",
        "meta_epoch": "2025-12-13T20:54:12.488832",
        "meta_mean_motion": 14.08922498,
        "meta_eccentricity": 0.0021131,
        "meta_inclination": 98.7721,
        "meta_ra_of_asc_node": 17.4638,
        "meta_arg_of_pericenter": 290.3006,
        "meta_mean_anomaly": 247.645,
        "meta_ephemeris_type": 0,
        "meta_classification_type": "U",
        "meta_norad_cat_id": 30572,
        "meta_element_set_no": 999,
        "meta_rev_at_epoch": 96777,
        "meta_bstar": 0.00030491868,
        "meta_mean_motion_dot": 4.85e-06,
        "meta_mean_motion_ddot": 0,
        "tle_line1": "1 30572U 99025ALN 25347.87097788  .00000485  00000+0  30492-3 0  9994",
        "tle_line2": "2 30572  98.7721  17.4638 0021131 290.3006 247.6450 14.08922498967771"
      },
      "geometry": {
        "type": "Point",
        "coordinates": [
          -154.41378290423177,
          39.187389300315296
        ]
      }
    },
    {
      "type": "Feature",
      "properties": {
        "norad_id": 30573,
        "name": "FENGYUN 1C DEB",
        "group": "fengyun-1c-debris",
        "lat": 71.91308451461371,
        "lon": -123.56267183037603,
        "alt_km": 900.0565895988957,
        "timestamp": "2025-12-14T18:52:55.780781+00:00",
        "meta_object_name": "FENGYUN 1C DEB",
        "meta_object_id": "1999-025ALP",
        "meta_epoch": "2025-12-13T14:13:51.674016",
        "meta_mean_motion": 14.13845843,
        "meta_eccentricity": 0.00883768,
        "meta_inclination": 99.2272,
        "meta_ra_of_asc_node": 25.3563,
        "meta_arg_of_pericenter": 271.3791,
        "meta_mean_anomaly": 241.6052,
        "meta_ephemeris_type": 0,
        "meta_classification_type": "U",
        "meta_norad_cat_id": 30573,
        "meta_element_set_no": 999,
        "meta_rev_at_epoch": 96209,
        "meta_bstar": 0.0022443292,
        "meta_mean_motion_dot": 4.367e-05,
        "meta_mean_motion_ddot": 0,
        "tle_line1": "1 30573U 99025ALP 25347.59295919  .00004367  00000+0  22443-2 0  9999",
        "tle_line2": "2 30573  99.2272  25.3563 0088376 271.3791 241.6052 14.13845843962094"
      },
      "geometry": {
        "type": "Point",
        "coordinates": [
          -123.56267183037603,
          71.91308451461371
        ]
      }
    },
    {
      "type": "Feature",
      "properties": {
        "norad_id": 30574,
        "name": "FENGYUN 1C DEB",
        "group": "fengyun-1c-debris",
        "lat": 46.28875493428578,
        "lon": -17.79315709361837,
        "alt_km": 1108.2762296713745,
        "timestamp": "2025-12-14T18:52:55.780791+00:00",
        "meta_object_name": "FENGYUN 1C DEB",
        "meta_object_id": "1999-025ALQ",
        "meta_epoch": "2025-12-11T10:03:26.289792",
        "meta_mean_motion": 13.77512791,
        "meta_eccentricity": 0.0219325,
        "meta_inclination": 99.302,
        "meta_ra_of_asc_node": 149.0367,
        "meta_arg_of_pericenter": 350.9796,
        "meta_mean_anomaly": 8.7444,
        "meta_ephemeris_type": 0,
        "meta_classification_type": "U",
        "meta_norad_cat_id": 30574,
        "meta_element_set_no": 999,
        "meta_rev_at_epoch": 93750,
        "meta_bstar": 0.0031904769,
        "meta_mean_motion_dot": 3.752e-05,
        "meta_mean_motion_ddot": 0,
        "tle_line1": "1 30574U 99025ALQ 25345.41905428  .00003752  00000+0  31905-2 0  9992",
        "tle_line2": "2 30574  99.3020 149.0367 0219325 350.9796   8.7444 13.77512791937509"
      },
      "geometry": {
        "type": "Point",
        "coordinates": [
          -17.79315709361837,
          46.28875493428578
        ]
      }
    },
    {
      "type": "Feature",
      "properties": {
        "norad_id": 30575,
        "name": "FENGYUN 1C DEB",
        "group": "fengyun-1c-debris",
        "lat": 8.871595663248364,
        "lon": 78.40404293816782,
        "alt_km": 788.834222749153,
        "timestamp": "2025-12-14T18:52:55.780801+00:00",
        "meta_object_name": "FENGYUN 1C DEB",
        "meta_object_id": "1999-025ALR",
        "meta_epoch": "2025-12-13T18:25:33.561120",
        "meta_mean_motion": 14.40072528,
        "meta_eccentricity": 0.00541705,
        "meta_inclination": 99.1693,
        "meta_ra_of_asc_node": 78.7583,
        "meta_arg_of_pericenter": 233.5018,
        "meta_mean_anomaly": 255.3648,
        "meta_ephemeris_type": 0,
        "meta_classification_type": "U",
        "meta_norad_cat_id": 30575,
        "meta_element_set_no": 999,
        "meta_rev_at_epoch": 98232,
        "meta_bstar": 0.0013256706,
        "meta_mean_motion_dot": 4.206e-05,
        "meta_mean_motion_ddot": 0,
        "tle_line1": "1 30575U 99025ALR 25347.76774955  .00004206  00000+0  13257-2 0  9997",
        "tle_line2": "2 30575  99.1693  78.7583 0054170 233.5018 255.3648 14.40072528982326"
      },
      "geometry": {
        "type": "Point",
        "coordinates": [
          78.40404293816782,
          8.871595663248364
        ]
      }
    },
    {
      "type": "Feature",
      "properties": {
        "norad_id": 30577,
        "name": "FENGYUN 1C DEB",
        "group": "fengyun-1c-debris",
        "lat": -26.903502639399207,
        "lon": -161.82323149312643,
        "alt_km": 853.6895714525899,
        "timestamp": "2025-12-14T18:52:55.780811+00:00",
        "meta_object_name": "FENGYUN 1C DEB",
        "meta_object_id": "1999-025ALT",
        "meta_epoch": "2025-12-13T20:38:12.057792",
        "meta_mean_motion": 14.11146408,
        "meta_eccentricity": 0.00286165,
        "meta_inclination": 98.7706,
        "meta_ra_of_asc_node": 21.7644,
        "meta_arg_of_pericenter": 278.9212,
        "meta_mean_anomaly": 262.4031,
        "meta_ephemeris_type": 0,
        "meta_classification_type": "U",
        "meta_norad_cat_id": 30577,
        "meta_element_set_no": 999,
        "meta_rev_at_epoch": 96800,
        "meta_bstar": 0.0006703978,
        "meta_mean_motion_dot": 1.169e-05,
        "meta_mean_motion_ddot": 0,
        "tle_line1": "1 30577U 99025ALT 25347.85986178  .00001169  00000+0  67040-3 0  9996",
        "tle_line2": "2 30577  98.7706  21.7644 0028616 278.9212 262.4031 14.11146408968000"
      },
      "geometry": {
        "type": "Point",
        "coordinates": [
          -161.82323149312643,
          -26.903502639399207
        ]
      }
    },
    {
      "type": "Feature",
      "properties": {
        "norad_id": 30579,
        "name": "FENGYUN 1C DEB",
        "group": "fengyun-1c-debris",
        "lat": 8.859421829779993,
        "lon": 12.017846808112614,
        "alt_km": 876.3284986873086,
        "timestamp": "2025-12-14T18:52:55.780821+00:00",
        "meta_object_name": "FENGYUN 1C DEB",
        "meta_object_id": "1999-025ALV",
        "meta_epoch": "2025-12-14T00:19:51.578688",
        "meta_mean_motion": 14.05252133,
        "meta_eccentricity": 0.00536909,
        "meta_inclination": 98.8069,
        "meta_ra_of_asc_node": 12.6519,
        "meta_arg_of_pericenter": 100.0842,
        "meta_mean_anomaly": 321.4152,
        "meta_ephemeris_type": 0,
        "meta_classification_type": "U",
        "meta_norad_cat_id": 30579,
        "meta_element_set_no": 999,
        "meta_rev_at_epoch": 96475,
        "meta_bstar": 0.00057198242,
        "meta_mean_motion_dot": 8.95e-06,
        "meta_mean_motion_ddot": 0,
        "tle_line1": "1 30579U 99025ALV 25348.01379142  .00000895  00000+0  57198-3 0  9992",
        "tle_line2": "2 30579  98.8069  12.6519 0053690 100.0842 321.4152 14.05252133964753"
      },
      "geometry": {
        "type": "Point",
        "coordinates": [
          12.017846808112614,
          8.859421829779993
        ]
      }
    }
  ]
}